NORAD_CAT_ID,OBJECT_NAME,OBJECT_TYPE,EPOCH,MEAN_MOTION,ECCENTRICITY,INCLINATION,RA_OF_ASC_NODE,ARG_OF_PERICENTER,MEAN_ANOMALY,BSTAR,MEAN_MOTION_DOT,MEAN_MOTION_DDOT,TLE_LINE0,TLE_LINE1,TLE_LINE2,SEMIMAJOR_AXIS,PERIOD,APOGEE,PERIGEE,DECAYED
49744.0,STARLINK-3231,PAYLOAD,2024-02-26 22:30:55,15.08843879,0.0001184,53.215,238.8651,83.225,276.8876,7.8291e-05,9.58e-06,0.0,0 STARLINK-3231,1 49744U 21115W   24057.93814462  .00000958  00000-0  78291-4 0  9996,2 49744  53.2150 238.8651 0001184  83.2250 276.8876 15.08843879123556,6917.869,95.437,540.553,538.914,0.0
49744.0,STARLINK-3231,PAYLOAD,2024-02-27 11:14:01,15.08836844,0.0001763,53.2176,236.4862,117.1741,242.9431,-3.2518e-06,-3.4e-06,0.0,0 STARLINK-3231,1 49744U 21115W   24058.46807101 -.00000340  00000-0 -32518-5 0  9997,2 49744  53.2176 236.4862 0001763 117.1741 242.9431 15.08836844123631,6917.89,95.438,540.975,538.535,0.0
49744.0,STARLINK-3231,PAYLOAD,2024-02-27 19:10:57,15.08836364,0.0001322,53.2166,234.9988,80.4786,279.6355,-3.5209e-05,-8.48e-06,0.0,0 STARLINK-3231,1 49744U 21115W   24058.79927508 -.00000848  00000-0 -35209-4 0  9999,2 49744  53.2166 234.9988 0001322  80.4786 279.6355 15.08836364124791,6917.892,95.438,540.671,538.842,0.0
49744.0,STARLINK-3231,PAYLOAD,2024-02-27 20:46:20,15.08839343,0.0001348,53.2163,234.6992,94.7738,265.3408,-4.311e-05,-9.74e-06,0.0,0 STARLINK-3231,1 49744U 21115W   24058.86551241 -.00000974  00000-0 -43110-4 0  9994,2 49744  53.2163 234.6992 0001348  94.7738 265.3408 15.08839343123692,6917.882,95.438,540.68,538.815,0.0
49744.0,STARLINK-3231,PAYLOAD,2024-02-28 11:04:48,15.08835694,0.000148,53.2168,232.0239,101.2532,258.8627,6.2193e-05,7.02e-06,0.0,0 STARLINK-3231,1 49744U 21115W   24059.46167434  .00000702  00000-0  62193-4 0  9997,2 49744  53.2168 232.0239 0001480 101.2532 258.8627 15.08835694123781,6917.894,95.438,540.782,538.735,0.0
49744.0,STARLINK-3231,PAYLOAD,2024-02-28 19:01:43,15.08849171,0.0001332,53.2163,230.5378,89.6384,270.4761,5.5584e-05,5.97e-06,0.0,0 STARLINK-3231,1 49744U 21115W   24059.79286682  .00000597  00000-0  55584-4 0  9998,2 49744  53.2163 230.5378 0001332  89.6384 270.4761 15.08849171124946,6917.852,95.437,540.639,538.796,0.0
49744.0,STARLINK-3231,PAYLOAD,2024-02-29 10:55:36,15.08818352,0.0001385,53.2166,227.5653,80.2108,279.9041,0.00047126,7.216e-05,0.0,0 STARLINK-3231,1 49744U 21115W   24060.45528252  .00007216  00000-0  47126-3 0  9992,2 49744  53.2166 227.5653 0001385  80.2108 279.9041 15.08818352125044,6917.947,95.439,540.77,538.853,0.0
49744.0,STARLINK-3231,PAYLOAD,2024-02-29 17:17:08,15.08836038,0.0001391,53.217,226.3759,85.8727,274.2424,0.00011448,1.534e-05,0.0,0 STARLINK-3231,1 49744U 21115W   24060.72023583  .00001534  00000-0  11448-3 0  9994,2 49744  53.2170 226.3759 0001391  85.8727 274.2424 15.08836038125086,6917.892,95.438,540.72,538.795,0.0
49744.0,STARLINK-3231,PAYLOAD,2024-03-01 10:46:23,15.08830848,0.0001395,53.217,223.1049,89.2733,270.8419,0.00014032,1.945e-05,0.0,0 STARLINK-3231,1 49744U 21115W   24061.44888048  .00001945  00000-0  14032-3 0  9997,2 49744  53.2170 223.1049 0001395  89.2733 270.8419 15.08830848124080,6917.908,95.438,540.738,538.808,0.0
49744.0,STARLINK-3231,PAYLOAD,2024-03-01 17:07:55,15.08842846,0.0001248,53.2166,221.9155,87.9694,272.1441,7.1378e-05,8.48e-06,0.0,0 STARLINK-3231,1 49744U 21115W   24061.71383322  .00000848  00000-0  71378-4 0  9990,2 49744  53.2166 221.9155 0001248  87.9694 272.1441 15.08842846124123,6917.872,95.437,540.6,538.873,0.0
49744.0,STARLINK-3231,PAYLOAD,2024-03-02 13:47:56,15.08837563,0.0001242,53.216,218.0498,85.8765,274.2369,5.8993e-05,6.51e-06,0.0,0 STARLINK-3231,1 49744U 21115W   24062.57495731  .00000651  00000-0  58993-4 0  9993,2 49744  53.2160 218.0498 0001242  85.8765 274.2369 15.08837563124250,6917.888,95.438,540.612,538.894,0.0
49744.0,STARLINK-3231,PAYLOAD,2024-03-02 15:23:19,15.08837476,0.0001242,53.2162,217.7525,85.9471,274.1663,5.5801e-05,6e-06,0.0,0 STARLINK-3231,1 49744U 21115W   24062.64119744  .00000600  00000-0  55801-4 0  9997,2 49744  53.2162 217.7525 0001242  85.9471 274.1663 15.08837476125377,6917.888,95.438,540.612,538.894,0.0
49744.0,STARLINK-3231,PAYLOAD,2024-03-03 13:38:43,15.08843933,0.0001311,53.2166,213.5899,88.2171,271.8971,8.129e-05,1.006e-05,0.0,0 STARLINK-3231,1 49744U 21115W   24063.56855400  .00001006  00000-0  81290-4 0  9997,2 49744  53.2166 213.5899 0001311  88.2171 271.8971 15.08843933124403,6917.868,95.437,540.64,538.826,0.0
49744.0,STARLINK-3231,PAYLOAD,2024-03-03 16:49:29,15.0884646,0.0001376,53.2168,212.9948,90.8663,269.2486,9.8803e-05,1.285e-05,0.0,0 STARLINK-3231,1 49744U 21115W   24063.70103158  .00001285  00000-0  98803-4 0  9996,2 49744  53.2168 212.9948 0001376  90.8663 269.2486 15.08846460124421,6917.861,95.437,540.678,538.774,0.0
49744.0,STARLINK-3231,PAYLOAD,2024-03-04 13:29:29,15.08848612,0.0001472,53.2177,209.1308,104.91,255.2055,0.00014887,2.083e-05,0.0,0 STARLINK-3231,1 49744U 21115W   24064.56214500  .00002083  00000-0  14887-3 0  9991,2 49744  53.2177 209.1308 0001472 104.9100 255.2055 15.08848612124551,6917.854,95.437,540.737,538.701,0.0
49744.0,STARLINK-3231,PAYLOAD,2024-03-04 16:40:15,15.08850609,0.0001444,53.2176,208.5367,102.3038,257.8116,0.00016693,2.37e-05,0.0,0 STARLINK-3231,1 49744U 21115W   24064.69462341  .00002370  00000-0  16693-3 0  9999,2 49744  53.2176 208.5367 0001444 102.3038 257.8116 15.08850609124576,6917.848,95.437,540.712,538.714,0.0
49744.0,STARLINK-3231,PAYLOAD,2024-03-05 14:55:40,15.08829442,0.0001357,53.2157,204.3705,89.7497,270.3651,-0.00020519,-3.551e-05,0.0,0 STARLINK-3231,1 49744U 21115W   24065.62199821 -.00003551  00000-0 -20519-3 0  9999,2 49744  53.2157 204.3705 0001357  89.7497 270.3651 15.08829442124716,6917.913,95.438,540.716,538.839,0.0
49744.0,STARLINK-3231,PAYLOAD,2024-03-05 18:06:26,15.08831133,0.0001496,53.2171,203.7779,99.3586,260.7575,-0.00015381,-2.734e-05,0.0,0 STARLINK-3231,1 49744U 21115W   24065.75447765 -.00002734  00000-0 -15381-3 0  9999,2 49744  53.2171 203.7779 0001496  99.3586 260.7575 15.08831133125849,6917.907,95.438,540.807,538.738,0.0
49744.0,STARLINK-3231,PAYLOAD,2024-03-06 08:24:54,15.08838908,0.0001439,53.2168,201.1005,100.2177,259.8977,-6.2559e-05,-1.283e-05,0.0,0 STARLINK-3231,1 49744U 21115W   24066.35063573 -.00001283  00000-0 -62559-4 0  9995,2 49744  53.2168 201.1005 0001439 100.2177 259.8977 15.08838908125936,6917.884,95.438,540.744,538.753,0.0
49744.0,STARLINK-3231,PAYLOAD,2024-03-06 13:11:04,15.08839254,0.0002104,53.2179,200.2098,125.2981,234.8208,9.5759e-05,1.236e-05,0.0,0 STARLINK-3231,1 49744U 21115W   24066.54935563  .00001236  00000-0  95759-4 0  9997,2 49744  53.2179 200.2098 0002104 125.2981 234.8208 15.08839254124855,6917.883,95.438,541.203,538.292,0.0
49744.0,STARLINK-3231,PAYLOAD,2024-03-07 14:37:15,15.08829549,0.0001414,53.2157,195.4498,89.7633,270.3521,3.9271e-05,3.37e-06,0.0,0 STARLINK-3231,1 49744U 21115W   24067.60920638  .00000337  00000-0  39271-4 0  9990,2 49744  53.2157 195.4498 0001414  89.7633 270.3521 15.08829549125019,6917.912,95.438,540.756,538.799,0.0
49744.0,STARLINK-3231,PAYLOAD,2024-03-08 14:28:02,15.0884667,0.0001395,53.2159,190.99,83.5918,276.5233,0.00080749,0.00012589,0.0,0 STARLINK-3231,1 49744U 21115W   24068.60280826  .00012589  00000-0  80749-3 0  9996,2 49744  53.2159 190.9900 0001395  83.5918 276.5233 15.08846670125163,6917.86,95.437,540.69,538.76,0.0
49744.0,STARLINK-3231,PAYLOAD,2024-03-09 11:08:03,15.0884904,0.000148,53.2166,187.1214,105.2879,254.8277,0.00030947,4.642e-05,0.0,0 STARLINK-3231,1 49744U 21115W   24069.46392560  .00004642  00000-0  30947-3 0  9996,2 49744  53.2166 187.1214 0001480 105.2879 254.8277 15.08849040126409,6917.853,95.437,540.742,538.694,0.0
49744.0,STARLINK-3231,PAYLOAD,2024-03-09 14:18:49,15.08850738,0.0001535,53.2167,186.5275,108.3274,251.7886,0.00028708,4.285e-05,0.0,0 STARLINK-3231,1 49744U 21115W   24069.59640544  .00004285  00000-0  28708-3 0  9993,2 49744  53.2167 186.5275 0001535 108.3274 251.7886 15.08850738125311,6917.848,95.437,540.774,538.651,0.0
49744.0,STARLINK-3231,PAYLOAD,2024-03-10 12:34:13,15.08842981,0.0001439,53.2159,182.3634,101.3861,258.7293,0.000229,3.359e-05,0.0,0 STARLINK-3231,1 49744U 21115W   24070.52376645  .00003359  00000-0  22900-3 0  9995,2 49744  53.2159 182.3634 0001439 101.3861 258.7293 15.08842981126561,6917.871,95.437,540.732,538.741,0.0
49744.0,STARLINK-3231,PAYLOAD,2024-03-10 14:09:36,15.08843948,8.65e-05,53.2169,182.0703,67.3272,292.7811,8.947e-05,1.137e-05,0.0,0 STARLINK-3231,1 49744U 21115W   24070.59000623  .00001137  00000-0  89470-4 0  9990,2 49744  53.2169 182.0703 0000865  67.3272 292.7811 15.08843948125461,6917.868,95.437,540.332,539.135,0.0
49744.0,STARLINK-3231,PAYLOAD,2024-03-10 17:20:22,15.08841824,0.0001626,53.2162,181.4717,87.8134,272.3044,0.00018143,2.601e-05,0.0,0 STARLINK-3231,1 49744U 21115W   24070.72248799  .00002601  00000-0  18143-3 0  9998,2 49744  53.2162 181.4717 0001626  87.8134 272.3044 15.08841824125487,6917.875,95.437,540.865,538.615,0.0
49744.0,STARLINK-3231,PAYLOAD,2024-03-11 14:00:23,15.0883915,0.0001362,53.2152,177.6062,84.6367,275.4781,0.00012284,1.668e-05,0.0,0 STARLINK-3231,1 49744U 21115W   24071.58360956  .00001668  00000-0  12284-3 0  9995,2 49744  53.2152 177.6062 0001362  84.6367 275.4781 15.08839150126725,6917.883,95.438,540.69,538.806,0.0
49744.0,STARLINK-3231,PAYLOAD,2024-03-12 13:51:11,15.08837445,0.0001252,53.2156,173.1478,83.1163,276.9971,5.171e-05,5.35e-06,0.0,0 STARLINK-3231,1 49744U 21115W   24072.57721112  .00000535  00000-0  51710-4 0  9990,2 49744  53.2156 173.1478 0001252  83.1163 276.9971 15.08837445125762,6917.888,95.438,540.619,538.887,0.0
49744.0,STARLINK-3231,PAYLOAD,2024-03-13 05:45:02,15.08843469,0.0001577,53.2177,170.1767,90.3517,269.7656,0.0001415,1.965e-05,0.0,0 STARLINK-3231,1 49744U 21115W   24073.23960765  .00001965  00000-0  14150-3 0  9997,2 49744  53.2177 170.1767 0001577  90.3517 269.7656 15.08843469126973,6917.87,95.437,540.826,538.644,0.0
